{
  "type": "FeatureCollection",
  "features": [
    {
      "type": "Feature",
      "properties": {
        "norad_id": 39585,
        "name": "COSMOS 2251 DEB",
        "group": "cosmos-2251-debris",
        "lat": 2.826288433921752,
        "lon": -46.834705205267994,
        "alt_km": 685.5003603690793,
        "timestamp": "2025-12-06T22:38:43.127330+00:00",
        "meta_object_name": "COSMOS 2251 DEB",
        "meta_object_id": "1993-036BUQ",
        "meta_epoch": "2025-11-29T06:16:21.203328",
        "meta_mean_motion": 14.58611374,
        "meta_eccentricity": 0.00652828,
        "meta_inclination": 74.0406,
        "meta_ra_of_asc_node": 326.9733,
        "meta_arg_of_pericenter": 91.8532,
        "meta_mean_anomaly": 269.0111,
        "meta_ephemeris_type": 0,
        "meta_classification_type": "U",
        "meta_norad_cat_id": 39585,
        "meta_element_set_no": 999,
        "meta_rev_at_epoch": 62324,
        "meta_bstar": 0.00023928135,
        "meta_mean_motion_dot": 1.117e-05,
        "meta_mean_motion_ddot": 0,
        "tle_line1": "1 39585U 93036BUQ 25333.26135652  .00001117  00000+0  23928-3 0  9993",
        "tle_line2": "2 39585  74.0406 326.9733 0065282  91.8532 269.0111 14.58611374623244"
      },
      "geometry": {
        "type": "Point",
        "coordinates": [
          -46.834705205267994,
          2.826288433921752
        ]
      }
    },
    {
      "type": "Feature",
      "properties": {
        "norad_id": 39586,
        "name": "COSMOS 2251 DEB",
        "group": "cosmos-2251-debris",
        "lat": -37.23641827716873,
        "lon": 71.24268738100066,
        "alt_km": 892.8969810614972,
        "timestamp": "2025-12-06T22:38:43.127340+00:00",
        "meta_object_name": "COSMOS 2251 DEB",
        "meta_object_id": "1993-036BUR",
        "meta_epoch": "2025-12-04T00:26:07.876608",
        "meta_mean_motion": 14.21195867,
        "meta_eccentricity": 0.01003221,
        "meta_inclination": 74.0095,
        "meta_ra_of_asc_node": 243.9042,
        "meta_arg_of_pericenter": 20.3845,
        "meta_mean_anomaly": 357.5964,
        "meta_ephemeris_type": 0,
        "meta_classification_type": "U",
        "meta_norad_cat_id": 39586,
        "meta_element_set_no": 999,
        "meta_rev_at_epoch": 60848,
        "meta_bstar": 0.00088936605,
        "meta_mean_motion_dot": 2.011e-05,
        "meta_mean_motion_ddot": 0,
        "tle_line1": "1 39586U 93036BUR 25338.01814672  .00002011  00000+0  88937-3 0  9993",
        "tle_line2": "2 39586  74.0095 243.9042 0100322  20.3845 357.5964 14.21195867608481"
      },
      "geometry": {
        "type": "Point",
        "coordinates": [
          71.24268738100066,
          -37.23641827716873
        ]
      }
    },
    {
      "type": "Feature",
      "properties": {
        "norad_id": 39591,
        "name": "COSMOS 2251 DEB",
        "group": "cosmos-2251-debris",
        "lat": 37.08385171850785,
        "lon": -89.970984684308,
        "alt_km": 731.1664803668918,
        "timestamp": "2025-12-06T22:38:43.127350+00:00",
        "meta_object_name": "COSMOS 2251 DEB",
        "meta_object_id": "1993-036BUW",
        "meta_epoch": "2025-12-02T01:57:06.430752",
        "meta_mean_motion": 14.41775079,
        "meta_eccentricity": 0.00288186,
        "meta_inclination": 74.0265,
        "meta_ra_of_asc_node": 266.5373,
        "meta_arg_of_pericenter": 22.6115,
        "meta_mean_anomaly": 349.3407,
        "meta_ephemeris_type": 0,
        "meta_classification_type": "U",
        "meta_norad_cat_id": 39591,
        "meta_element_set_no": 999,
        "meta_rev_at_epoch": 61623,
        "meta_bstar": 0.00055457771,
        "meta_mean_motion_dot": 1.794e-05,
        "meta_mean_motion_ddot": 0,
        "tle_line1": "1 39591U 93036BUW 25336.08132443  .00001794  00000+0  55458-3 0  9992",
        "tle_line2": "2 39591  74.0265 266.5373 0028818  22.6115 349.3407 14.41775079616232"
      },
      "geometry": {
        "type": "Point",
        "coordinates": [
          -89.970984684308,
          37.08385171850785
        ]
      }
    },
    {
      "type": "Feature",
      "properties": {
        "norad_id": 40218,
        "name": "COSMOS 2251 DEB",
        "group": "cosmos-2251-debris",
        "lat": -58.64267846583322,
        "lon": -128.45751427792507,
        "alt_km": 752.0233090622378,
        "timestamp": "2025-12-06T22:38:43.127360+00:00",
        "meta_object_name": "COSMOS 2251 DEB",
        "meta_object_id": "1993-036BUX",
        "meta_epoch": "2025-12-02T02:20:48.132384",
        "meta_mean_motion": 14.41546301,
        "meta_eccentricity": 0.00163619,
        "meta_inclination": 74.0309,
        "meta_ra_of_asc_node": 268.5457,
        "meta_arg_of_pericenter": 353.795,
        "meta_mean_anomaly": 6.3,
        "meta_ephemeris_type": 0,
        "meta_classification_type": "U",
        "meta_norad_cat_id": 40218,
        "meta_element_set_no": 999,
        "meta_rev_at_epoch": 58708,
        "meta_bstar": 0.00047133972,
        "meta_mean_motion_dot": 1.508e-05,
        "meta_mean_motion_ddot": 0,
        "tle_line1": "1 40218U 93036BUX 25336.09777931  .00001508  00000+0  47134-3 0  9993",
        "tle_line2": "2 40218  74.0309 268.5457 0016361 353.7950   6.3000 14.41546301587082"
      },
      "geometry": {
        "type": "Point",
        "coordinates": [
          -128.45751427792507,
          -58.64267846583322
        ]
      }
    },
    {
      "type": "Feature",
      "properties": {
        "norad_id": 40223,
        "name": "COSMOS 2251 DEB",
        "group": "cosmos-2251-debris",
        "lat": 60.54970191728052,
        "lon": 131.29502540564044,
        "alt_km": 559.4716908816135,
        "timestamp": "2025-12-06T22:38:43.127371+00:00",
        "meta_object_name": "COSMOS 2251 DEB",
        "meta_object_id": "1993-036BVC",
        "meta_epoch": "2025-12-06T02:22:01.105824",
        "meta_mean_motion": 15.0245395,
        "meta_eccentricity": 0.00155815,
        "meta_inclination": 73.937,
        "meta_ra_of_asc_node": 102.3444,
        "meta_arg_of_pericenter": 296.8665,
        "meta_mean_anomaly": 239.5925,
        "meta_ephemeris_type": 0,
        "meta_classification_type": "U",
        "meta_norad_cat_id": 40223,
        "meta_element_set_no": 999,
        "meta_rev_at_epoch": 59274,
        "meta_bstar": 0.0082858106,
        "meta_mean_motion_dot": 0.00111919,
        "meta_mean_motion_ddot": 0,
        "tle_line1": "1 40223U 93036BVC 25340.09862391  .00111919  00000+0  82858-2 0  9998",
        "tle_line2": "2 40223  73.9370 102.3444 0015581 296.8665 239.5925 15.02453950592748"
      },
      "geometry": {
        "type": "Point",
        "coordinates": [
          131.29502540564044,
          60.54970191728052
        ]
      }
    },
    {
      "type": "Feature",
      "properties": {
        "norad_id": 40228,
        "name": "COSMOS 2251 DEB",
        "group": "cosmos-2251-debris",
        "lat": -19.349153797061863,
        "lon": 97.00432449350143,
        "alt_km": 771.7045190066447,
        "timestamp": "2025-12-06T22:38:43.127381+00:00",
        "meta_object_name": "COSMOS 2251 DEB",
        "meta_object_id": "1993-036BVH",
        "meta_epoch": "2025-12-06T01:47:35.450304",
        "meta_mean_motion": 14.40969365,
        "meta_eccentricity": 0.00238334,
        "meta_inclination": 74.055,
        "meta_ra_of_asc_node": 272.8479,
        "meta_arg_of_pericenter": 335.259,
        "meta_mean_anomaly": 39.7103,
        "meta_ephemeris_type": 0,
        "meta_classification_type": "U",
        "meta_norad_cat_id": 40228,
        "meta_element_set_no": 999,
        "meta_rev_at_epoch": 58825,
        "meta_bstar": 0.00061663194,
        "meta_mean_motion_dot": 1.961e-05,
        "meta_mean_motion_ddot": 0,
        "tle_line1": "1 40228U 93036BVH 25340.07471586  .00001961  00000+0  61663-3 0  9990",
        "tle_line2": "2 40228  74.0550 272.8479 0023833 335.2590  39.7103 14.40969365588252"
      },
      "geometry": {
        "type": "Point",
        "coordinates": [
          97.00432449350143,
          -19.349153797061863
        ]
      }
    },
    {
      "type": "Feature",
      "properties": {
        "norad_id": 40230,
        "name": "COSMOS 2251 DEB",
        "group": "cosmos-2251-debris",
        "lat": -9.117119796178944,
        "lon": 60.386840957272554,
        "alt_km": 735.7130379140126,
        "timestamp": "2025-12-06T22:38:43.127391+00:00",
        "meta_object_name": "COSMOS 2251 DEB",
        "meta_object_id": "1993-036BVK",
        "meta_epoch": "2025-12-05T11:49:12.794880",
        "meta_mean_motion": 14.49259606,
        "meta_eccentricity": 0.00191133,
        "meta_inclination": 74.0458,
        "meta_ra_of_asc_node": 240.4744,
        "meta_arg_of_pericenter": 299.5216,
        "meta_mean_anomaly": 242.5097,
        "meta_ephemeris_type": 0,
        "meta_classification_type": "U",
        "meta_norad_cat_id": 40230,
        "meta_element_set_no": 999,
        "meta_rev_at_epoch": 58866,
        "meta_bstar": 0.0014637297,
        "meta_mean_motion_dot": 5.571e-05,
        "meta_mean_motion_ddot": 0,
        "tle_line1": "1 40230U 93036BVK 25339.49250920  .00005571  00000+0  14637-2 0  9993",
        "tle_line2": "2 40230  74.0458 240.4744 0019113 299.5216 242.5097 14.49259606588661"
      },
      "geometry": {
        "type": "Point",
        "coordinates": [
          60.386840957272554,
          -9.117119796178944
        ]
      }
    }
  ]
}